[{"OBJECT_NAME":"STARLINK-35532","OBJECT_ID":"2025-236F","EPOCH":"2026-03-09T12:29:45.608064","MEAN_MOTION":15.30205397,"ECCENTRICITY":0.00011984,"INCLINATION":53.158,"RA_OF_ASC_NODE":104.3062,"ARG_OF_PERICENTER":93.3164,"MEAN_ANOMALY":266.7974,"EPHEMERIS_TYPE":0,"CLASSIFICATION_TYPE":"U","NORAD_CAT_ID":66091,"ELEMENT_SET_NO":999,"REV_AT_EPOCH":2292,"BSTAR":0.0008174376,"MEAN_MOTION_DOT":0.00023933,"MEAN_MOTION_DDOT":0},{"OBJECT_NAME":"KUIPER-00208","OBJECT_ID":"2026-030M","EPOCH":"2026-03-09T16:08:08.024640","MEAN_MOTION":15.32208734,"ECCENTRICITY":0.00155248,"INCLINATION":51.8846,"RA_OF_ASC_NODE":219.6993,"ARG_OF_PERICENTER":57.3146,"MEAN_ANOMALY":302.9333,"EPHEMERIS_TYPE":0,"CLASSIFICATION_TYPE":"U","NORAD_CAT_ID":67775,"ELEMENT_SET_NO":999,"REV_AT_EPOCH":508,"BSTAR":0.0013882708,"MEAN_MOTION_DOT":0.00043852,"MEAN_MOTION_DDOT":0}]
